STARLETTE               
1 07646U 75010A   24357.54567751 -.00000140  00000+0  42587-5 0  9993
2 07646  49.8239  82.5405 0205570  73.7317 288.6082 13.82338327519617
LAGEOS 1                
1 08820U 76039A   24357.49407073  .00000020  00000+0  00000+0 0  9998
2 08820 109.8531 353.7905 0044063  57.8923  98.6833  6.38664907878548
AJISAI (EGS)            
1 16908U 86061A   24357.55941410 -.00000090  00000+0  49774-4 0  9999
2 16908  50.0114  12.8809 0011295 241.5905 254.6903 12.44509433412943
COSMOS 1989 (ETALON 1)  
1 19751U 89001C   24357.39999722 -.00000022  00000+0  00000+0 0  9995
2 19751  64.6437  90.7693 0023712 216.3525 163.0272  2.13156123279821
COSMOS 2024 (ETALON 2)  
1 20026U 89039C   24356.47456066 -.00000057  00000+0  00000+0 0  9998
2 20026  65.2493 329.1694 0019853 216.4775 237.0349  2.13204484276936
LAGEOS 2                
1 22195U 92070B   24356.43260352 -.00000009  00000+0  00000+0 0  9990
2 22195  52.6491 249.6713 0137220 309.6777 184.5471  6.47293867760289
STELLA                  
1 22824U 93061B   24357.59626953 -.00000024  00000+0  88912-5 0  9992
2 22824  98.8530  46.5596 0006689  20.9769 153.2046 14.27444694627506
LARETS                  
1 27944U 03042F   24357.59584183  .00000220  00000+0  51875-4 0  9992
2 27944  98.3402 139.7799 0011107 289.1518  70.8481 14.63667633134138
LARES                   
1 38077U 12006A   24357.55531108 -.00000027  00000+0  72728-4 0  9992
2 38077  69.4889 137.4044 0009836 207.7517 152.2986 12.54931890589118
LARES-2                 
1 53105U 22080A   24354.33127793  .00000015  00000+0  00000+0 0  9993
2 53105  70.1368 132.2026 0004842  95.7342 264.3682  6.38965235 56857
